COSMOS 2419 (714)       
1 28915U 05050A   17166.71355855 -.00000031  00000-0  00000-0 0  9990
2 28915  65.4954  65.9021 0017321 353.6388  37.3081  2.13107008 89307
COSMOS 2425 (716)       
1 29670U 06062A   17166.66858832 -.00000013  00000-0  10000-3 0  9994
2 29670  65.4620 304.9125 0020379 350.1672  58.4431  2.13104935 81505
COSMOS 2426 (717)       
1 29671U 06062B   17166.48219200 -.00000013  00000-0  10000-3 0  9995
2 29671  65.4809 305.0100 0018319 160.0415 323.9115  2.13102903 81506
COSMOS 2424 (715)       
1 29672U 06062C   17166.85417523 -.00000013  00000-0  10000-3 0  9995
2 29672  65.4649 304.9182 0017871 158.9831  65.6504  2.13102308 81508
COSMOS 2433 (720)       
1 32275U 07052A   17166.53879188 -.00000031  00000-0  10000-3 0  9992
2 32275  65.5107  65.6867 0002891 302.2560 198.8709  2.13104611 75015
COSMOS 2432 (719)       
1 32276U 07052B   17166.68682877 -.00000031  00000-0  10000-3 0  9996
2 32276  65.5215  65.7532 0012998 339.6523 227.9356  2.13104108 75011
COSMOS 2434 (721)       
1 32393U 07065A   17166.51130578 -.00000014  00000-0  00000-0 0  9995
2 32393  65.0791 304.0686 0005831 109.9549 259.6865  2.13102934 73726
COSMOS 2436 (723)       
1 32395U 07065C   17166.57223235 -.00000014  00000-0  10000-3 0  9990
2 32395  65.0896 304.1133 0014545   7.1720  97.8884  2.13104310 73659
COSMOS 2443 (725)       
1 33379U 08046B   17166.26964466 -.00000031  00000-0  00000-0 0  9992
2 33379  65.4388  65.0782 0011504 179.6687  15.5017  2.13099384 67870
COSMOS 2456 (730)       
1 36111U 09070A   17166.78135104  .00000096  00000-0  00000-0 0  9993
2 36111  64.1799 183.6252 0006464 298.4836  89.4198  2.13102955 58399
COSMOS 2457 (733)       
1 36112U 09070B   17166.75206019  .00000096  00000-0  00000-0 0  9995
2 36112  64.1618 183.5451 0006353 191.7556 302.2394  2.13101630 58394
COSMOS 2458 (734)       
1 36113U 09070C   17166.74855094  .00000096  00000-0  10000-3 0  9992
2 36113  64.1680 183.5532 0002768 299.3308 239.9708  2.13102062 58395
COSMOS 2459 (731)       
1 36400U 10007A   17166.58491252 -.00000032  00000-0  10000-3 0  9998
2 36400  65.4188  64.7918 0029157 353.3332  45.2758  2.13102294 56745
COSMOS 2461 (735)       
1 36401U 10007B   17166.73826906 -.00000032  00000-0  10000-3 0  9994
2 36401  65.4128  64.7630 0007591  56.2922  10.5690  2.13102335 56749
COSMOS 2460 (732)       
1 36402U 10007C   17166.72150201 -.00000032  00000-0  10000-3 0  9992
2 36402  65.4024  64.7375 0001980   9.6647  85.6118  2.13101722 56740
COSMOS 2465 (737)       
1 37138U 10041B   17166.54263035 -.00000015  00000-0  00000-0 0  9994
2 37138  64.6778 304.0578 0035989 169.5934 269.1036  2.13106391 52819
COSMOS 2464 (736)       
1 37139U 10041C   17166.67643295 -.00000015  00000-0  00000-0 0  9999
2 37139  64.6842 304.0506 0023019  17.1155 346.9442  2.13102607 52818
COSMOS 2471 (701K)      
1 37372U 11009A   17166.80225139 -.00000033  00000-0  00000-0 0  9991
2 37372  65.4007  64.6798 0007222 242.0559  51.2804  2.13107588 49015
COSMOS 2474 (742)       
1 37829U 11055A   17166.49837358  .00000094  00000-0  00000-0 0  9992
2 37829  64.5044 184.1976 0010733 253.5680 137.0449  2.13101958 44380
COSMOS 2476 (744)       
1 37867U 11064A   17166.73134334  .00000096  00000-0  00000-0 0  9997
2 37867  64.4837 184.2623 0019972 246.8588   8.4237  2.13102007 43737
COSMOS 2477 (745)       
1 37868U 11064B   17166.65039853  .00000095  00000-0  00000-0 0  9998
2 37868  64.4927 184.3098 0017869 248.2911 124.0090  2.13101871 43699
COSMOS 2475 (743)       
1 37869U 11064C   17166.70530782  .00000096  00000-0  00000-0 0  9993
2 37869  64.4996 184.2988 0022874 271.2218  99.5931  2.13102037 43708
COSMOS 2485 (747)       
1 39155U 13019A   17166.66278686  .00000095  00000-0  00000-0 0  9991
2 39155  64.6537 184.2939 0020286 242.0158   5.6887  2.13102040 32206
COSMOS 2492 (754)       
1 39620U 14012A   17166.49214146 -.00000032  00000-0  10000-3 0  9990
2 39620  65.2920  64.6808 0016313 335.0579 175.8899  2.13103426 25156
COSMOS 2500 (755)       
1 40001U 14032A   17166.25410089 -.00000031  00000-0  00000-0 0  9990
2 40001  65.2316  64.6849 0004220 214.4952 336.8803  2.13102942 23361
COSMOS 2501 (702K)      
1 40315U 14075A   17166.75045256 -.00000016  00000-0  00000-0 0  9993
2 40315  64.4113 305.3903 0014666 203.7279 174.4943  2.13098588 19781
COSMOS 2514 (751)       
1 41330U 16008A   17166.47550138 -.00000032  00000-0  00000-0 0  9996
2 41330  65.0326  64.8239 0007682 222.9591 318.2471  2.13103409 10538
COSMOS 2516 (753)       
1 41554U 16032A   17166.50309853 -.00000015  00000-0  00000-0 0  9992
2 41554  64.6329 305.1642 0011008 213.0354 241.9451  2.13101578  8147
